ONEWEB-0509             
1 54127U 22138Q   23264.90241055  .00000020  00000+0  17682-4 0  9997
2 54127  87.9250 143.8522 0001919  80.9569 279.1781 13.19723844 45000
ONEWEB-0510             
1 54128U 22138R   23265.12722658  .00000001  00000+0 -28460-4 0  9992
2 54128  87.9221 113.2846 0002057  74.1091 286.0269 13.20771130 48305
ONEWEB-0511             
1 54129U 22138S   23265.20253942  .00005915  00000+0  14739-1 0  9996
2 54129  87.9251 143.7935 0001876  90.6893 269.4454 13.19693248 45946
ONEWEB-0512             
1 54130U 22138T   23264.73972755  .00000018  00000+0  11983-4 0  9995
2 54130  87.9247 143.8847 0002254  88.1900 271.9491 13.19724922 44984
ONEWEB-0513             
1 54131U 22138U   23264.93794696 -.00000026  00000+0 -96703-4 0  9998
2 54131  87.9248 143.8497 0002230  96.9661 263.1725 13.19727470 44896
ONEWEB-0514             
1 54132U 22138V   23265.13460040 -.00000253  00000+0 -66411-3 0  9999
2 54132  87.9250 143.8089 0001735  78.8477 281.2851 13.19726111 45927
ONEWEB-0515             
1 54133U 22138W   23265.11459399 -.00000023  00000+0 -88035-4 0  9995
2 54133  87.9169 113.3219 0001817  52.5319 307.5980 13.20772541 48297
ONEWEB-0516             
1 54134U 22138X   23265.18515577  .00000078  00000+0  16272-3 0  9995
2 54134  87.9248 143.7956 0001900  76.5966 283.5379 13.19728354 45932
